{
  "norad_id": 67458,
  "name": "STARLINK-36528",
  "history": [
    {
      "epoch": "2026-03-28T21:26:31.977024Z",
      "apogee_km": 484.30929449327687,
      "perigee_km": 481.78355565083893,
      "latitude_deg": 4.743712870336692e-05,
      "longitude_deg": -51.564923454467674,
      "height_km": 482.2784290215252,
      "semi_major_axis_km": 6861.183425072058,
      "eccentricity": 0.00018406,
      "inclination_deg": 43.0034,
      "raan_deg": 96.3756,
      "arg_perigee_deg": 295.5845,
      "mean_anomaly_deg": 64.4817,
      "mean_motion_rev_day": 15.27580892
    },
    {
      "epoch": "2026-03-29T00:34:50.663136Z",
      "apogee_km": 484.1379413618879,
      "perigee_km": 481.8559282151764,
      "latitude_deg": 2.039112609419185e-06,
      "longitude_deg": -99.50932528962825,
      "height_km": 482.23080496454475,
      "semi_major_axis_km": 6861.133934788531,
      "eccentricity": 0.0001663,
      "inclination_deg": 43.0031,
      "raan_deg": 95.638,
      "arg_perigee_deg": 298.435,
      "mean_anomaly_deg": 61.6334,
      "mean_motion_rev_day": 15.2759742
    },
    {
      "epoch": "2026-03-30T00:07:11.542944Z",
      "apogee_km": 484.04416697251054,
      "perigee_km": 481.9264129664889,
      "latitude_deg": 4.3612357066864197e-05,
      "longitude_deg": -99.10669751032344,
      "height_km": 483.0246279282707,
      "semi_major_axis_km": 6861.122289969499,
      "eccentricity": 0.00015433,
      "inclination_deg": 43.0031,
      "raan_deg": 90.0943,
      "arg_perigee_deg": 255.6601,
      "mean_anomaly_deg": 104.408,
      "mean_motion_rev_day": 15.27601309
    },
    {
      "epoch": "2026-03-30T11:06:17.227296Z",
      "apogee_km": 484.01283350883295,
      "perigee_km": 481.9551833184096,
      "latitude_deg": -2.974335880590031e-05,
      "longitude_deg": 93.08530567815258,
      "height_km": 482.58091274949027,
      "semi_major_axis_km": 6861.121008413621,
      "eccentricity": 0.00014995,
      "inclination_deg": 43.0025,
      "raan_deg": 87.5112,
      "arg_perigee_deg": 280.0855,
      "mean_anomaly_deg": 79.9827,
      "mean_motion_rev_day": 15.27601737
    },
    {
      "epoch": "2026-03-31T01:13:41.764512Z",
      "apogee_km": 483.81886742070674,
      "perigee_km": 482.14955662982084,
      "latitude_deg": -4.442030489158691e-06,
      "longitude_deg": -122.67473586781264,
      "height_km": 483.55804919910213,
      "semi_major_axis_km": 6861.121212025263,
      "eccentricity": 0.00012165,
      "inclination_deg": 42.9989,
      "raan_deg": 84.1834,
      "arg_perigee_deg": 196.97,
      "mean_anomaly_deg": 163.1111,
      "mean_motion_rev_day": 15.27601669
    },
    {
      "epoch": "2026-04-01T05:28:33.941568Z",
      "apogee_km": 484.33359644608754,
      "perigee_km": 482.21342059895414,
      "latitude_deg": 3.3947219466883996e-05,
      "longitude_deg": 165.80300525583627,
      "height_km": 482.89028072800704,
      "semi_major_axis_km": 6861.41050852252,
      "eccentricity": 0.0001545,
      "inclination_deg": 42.9991,
      "raan_deg": 77.5386,
      "arg_perigee_deg": 278.6787,
      "mean_anomaly_deg": 81.389,
      "mean_motion_rev_day": 15.27505058
    },
    {
      "epoch": "2026-04-02T08:09:13.752864Z",
      "apogee_km": 484.50806374291915,
      "perigee_km": 481.26417201278673,
      "latitude_deg": 3.396717688026747e-06,
      "longitude_deg": 118.27057821284997,
      "height_km": 481.9675952896751,
      "semi_major_axis_km": 6861.023117877853,
      "eccentricity": 0.0002364,
      "inclination_deg": 43.0064,
      "raan_deg": 71.2677,
      "arg_perigee_deg": 295.4349,
      "mean_anomaly_deg": 64.6258,
      "mean_motion_rev_day": 15.2763443
    },
    {
      "epoch": "2026-04-02T22:16:37.340544Z",
      "apogee_km": 483.78156969862994,
      "perigee_km": 481.98384531486863,
      "latitude_deg": -1.2536844193844478e-05,
      "longitude_deg": -97.48684035293547,
      "height_km": 482.92331785935914,
      "semi_major_axis_km": 6861.019707506749,
      "eccentricity": 0.00013101,
      "inclination_deg": 43.0016,
      "raan_deg": 67.9386,
      "arg_perigee_deg": 252.9271,
      "mean_anomaly_deg": 107.1437,
      "mean_motion_rev_day": 15.27635569
    },
    {
      "epoch": "2026-04-03T06:07:22.990944Z",
      "apogee_km": 484.4504424176939,
      "perigee_km": 481.1640501237307,
      "latitude_deg": 1.5261645304955562e-06,
      "longitude_deg": 142.65344032913194,
      "height_km": 483.11423411689555,
      "semi_major_axis_km": 6860.944246270712,
      "eccentricity": 0.0002395,
      "inclination_deg": 43.0053,
      "raan_deg": 66.0913,
      "arg_perigee_deg": 251.216,
      "mean_anomaly_deg": 108.8432,
      "mean_motion_rev_day": 15.27660772
    },
    {
      "epoch": "2026-04-04T05:39:44.965440Z",
      "apogee_km": 484.1741252087995,
      "perigee_km": 482.00350780948884,
      "latitude_deg": 1.6105005791353666e-05,
      "longitude_deg": 143.05816485409647,
      "height_km": 482.57896437743176,
      "semi_major_axis_km": 6861.225816509144,
      "eccentricity": 0.00015818,
      "inclination_deg": 43.0025,
      "raan_deg": 60.5543,
      "arg_perigee_deg": 285.3324,
      "mean_anomaly_deg": 74.7353,
      "mean_motion_rev_day": 15.27566735
    },
    {
      "epoch": "2026-04-05T14:37:01.943328Z",
      "apogee_km": 483.85148970351656,
      "perigee_km": 482.1828570085563,
      "latitude_deg": -3.150820721841633e-05,
      "longitude_deg": -0.37133103130398426,
      "height_km": 482.6173760549054,
      "semi_major_axis_km": 6861.154173356036,
      "eccentricity": 0.0001216,
      "inclination_deg": 43.0045,
      "raan_deg": 52.799,
      "arg_perigee_deg": 282.2378,
      "mean_anomaly_deg": 77.8337,
      "mean_motion_rev_day": 15.27590661
    },
    {
      "epoch": "2026-04-06T04:44:26.146176Z",
      "apogee_km": 484.24079843921027,
      "perigee_km": 481.7209842824286,
      "latitude_deg": 7.310868052289677e-06,
      "longitude_deg": 143.876836966098,
      "height_km": 482.9899882922396,
      "semi_major_axis_km": 6861.117891360819,
      "eccentricity": 0.00018363,
      "inclination_deg": 43.0055,
      "raan_deg": 49.478,
      "arg_perigee_deg": 259.4124,
      "mean_anomaly_deg": 100.6521,
      "mean_motion_rev_day": 15.27602778
    }
  ]
}